NORAD_CAT_ID,OBJECT_NAME,OBJECT_TYPE,EPOCH,MEAN_MOTION,ECCENTRICITY,INCLINATION,RA_OF_ASC_NODE,ARG_OF_PERICENTER,MEAN_ANOMALY,BSTAR,MEAN_MOTION_DOT,MEAN_MOTION_DDOT,TLE_LINE0,TLE_LINE1,TLE_LINE2,SEMIMAJOR_AXIS,PERIOD,APOGEE,PERIGEE,DECAYED
49759.0,STARLINK-3204,PAYLOAD,2022-02-02 22:00:00,15.40427521,0.0002856999999999,53.2184,25.3136,17.7122,0.9321,0.0019521,0.00080639,0.0,0 STARLINK-3204,1 49759U 21115AM  22033.91667824  .00080639  00000-0  19521-2 0  9993,2 49759  53.2184  25.3136 0002857  17.7122   0.9321 15.40427521 10817,6822.984,93.481,446.798,442.899,0.0
49759.0,STARLINK-3204,PAYLOAD,2022-02-03 06:00:00,15.40495434,0.0003046,53.2179,23.7412,15.2932,52.9331,-0.0021796,-0.00089114,0.0,0 STARLINK-3204,1 49759U 21115AM  22034.25001157 -.00089114  00000-0 -21796-2 0  9998,2 49759  53.2179  23.7412 0003046  15.2932  52.9331 15.40495434 10864,6822.783,93.476,446.726,442.57,0.0
49759.0,STARLINK-3204,PAYLOAD,2022-02-03 14:00:01,15.40485801,0.0003047,53.2189,22.174,15.7261,102.1072,-0.0009284,-0.00038428,0.0,0 STARLINK-3204,1 49759U 21115AM  22034.58334491 -.00038428  00000-0 -92840-3 0  9995,2 49759  53.2189  22.1740 0003047  15.7261 102.1072 15.40485801 10916,6822.812,93.477,446.755,442.598,0.0
49759.0,STARLINK-3204,PAYLOAD,2022-02-03 22:00:01,15.404789,0.0002862,53.2192,20.6021,20.59800000000001,146.917,0.00087128,0.00035616,0.0,0 STARLINK-3204,1 49759U 21115AM  22034.91668981  .00035616  00000-0  87128-3 0  9993,2 49759  53.2192  20.6021 0002862  20.5980 146.9170 15.40478900 10963,6822.831999999999,93.477,446.65,442.744,0.0
49759.0,STARLINK-3204,PAYLOAD,2022-02-04 06:00:00,15.4052718,0.0003056,53.2194,19.0334,19.9676,197.1561,-8.5091e-05,-3.91e-05,0.0,0 STARLINK-3204,1 49759U 21115AM  22035.25001157 -.00003910  00000-0 -85091-4 0  9999,2 49759  53.2194  19.0334 0003056  19.9676 197.1561 15.40527180 11018,6822.689,93.474,446.639,442.469,0.0
49759.0,STARLINK-3204,PAYLOAD,2022-02-04 14:00:01,15.40533985,0.0002959,53.2192,17.4622,16.399,250.4232,-0.0015582,-0.0006411,0.0,0 STARLINK-3204,1 49759U 21115AM  22035.58335648 -.00064110  00000-0 -15582-2 0  9995,2 49759  53.2192  17.4622 0002959  16.3990 250.4232 15.40533985 11062,6822.669,93.474,446.55300000000005,442.515,0.0
49759.0,STARLINK-3204,PAYLOAD,2022-02-04 22:00:00,15.40516314,0.0002759,53.2196,15.8906,17.5535,298.8445,-0.0022625,-0.00092508,0.0,0 STARLINK-3204,1 49759U 21115AM  22035.91667824 -.00092508  00000-0 -22625-2 0  9994,2 49759  53.2196  15.8906 0002759  17.5535 298.8445 15.40516314  3610,6822.721,93.475,446.469,442.704,0.0
49759.0,STARLINK-3204,PAYLOAD,2022-02-05 14:00:01,15.40453301,0.0002969,53.2189,12.751,20.6975,34.8714,-0.00013537,-5.966e-05,0.0,0 STARLINK-3204,1 49759U 21115AM  22036.58334491 -.00005966  00000-0 -13537-3 0  9994,2 49759  53.2189  12.7510 0002969  20.6975  34.8714 15.40453301 11224,6822.906999999997,93.479,446.798,442.747,0.0
49759.0,STARLINK-3204,PAYLOAD,2022-02-06 14:00:01,15.40396754,0.0002768999999999,53.2185,8.0399,14.9308,189.412,-0.0020991,-0.00085595,0.0,0 STARLINK-3204,1 49759U 21115AM  22037.58335648 -.00085595  00000-0 -20991-2 0  9997,2 49759  53.2185   8.0399 0002769  14.9308 189.4120 15.40396754 11379,6823.074000000001,93.482,446.829,443.05,0.0
49759.0,STARLINK-3204,PAYLOAD,2022-02-06 20:00:01,15.40314443,0.0002602,53.2185,6.8613,20.5356,130.8595,0.0033683,0.0014,0.0,0 STARLINK-3204,1 49759U 21115AM  22037.83334491  .00140000  00000-0  33683-2 0  9993,2 49759  53.2185   6.8613 0002602  20.5356 130.8595 15.40314443 11412,6823.318,93.487,446.958,443.407,0.0
49759.0,STARLINK-3204,PAYLOAD,2022-02-06 22:00:00,15.40353622,0.0002597,53.2187,6.4689,21.9075,231.8393,0.0025035,0.00103589,0.0,0 STARLINK-3204,1 49759U 21115AM  22037.91667824  .00103589  00000-0  25035-2 0  9994,2 49759  53.2187   6.4689 0002597  21.9075 231.8393 15.40353622  3634,6823.2019999999975,93.485,446.839,443.295,0.0
49759.0,STARLINK-3204,PAYLOAD,2022-02-07 06:00:00,15.40404545,0.000288,53.2188,4.9007,21.5213,281.7290000000001,0.0015684,0.00064523,0.0,0 STARLINK-3204,1 49759U 21115AM  22038.25001157  .00064523  00000-0  15684-2 0  9996,2 49759  53.2188   4.9007 0002880  21.5213 281.7290 15.40404545 11480,6823.051,93.482,446.882,442.951,0.0
49759.0,STARLINK-3204,PAYLOAD,2022-02-07 14:00:01,15.4047184,0.0002721,53.2186,3.3291,20.9142,331.8754,-0.00078526,-0.00032574,0.0,0 STARLINK-3204,1 49759U 21115AM  22038.58334491 -.00032574  00000-0 -78526-3 0  9990,2 49759  53.2186   3.3291 0002721  20.9142 331.8754 15.40471840  3647,6822.853,93.478,446.574,442.861,0.0
49759.0,STARLINK-3204,PAYLOAD,2022-02-07 22:00:00,15.40470434,0.0002583,53.2189,1.758,23.8733,18.5097,0.00036356,0.00014581,0.0,0 STARLINK-3204,1 49759U 21115AM  22038.91667824  .00014581  00000-0  36356-3 0  9997,2 49759  53.2189   1.7580 0002583  23.8733  18.5097 15.40470434 11586,6822.857,93.478,446.484,442.96,0.0
49759.0,STARLINK-3204,PAYLOAD,2022-02-08 14:00:01,15.40509422,0.000264,53.2191,358.6177,20.2095,121.3706,-0.0012807,-0.00052797,0.0,0 STARLINK-3204,1 49759U 21115AM  22039.58334491 -.00052797  00000-0 -12807-2 0  9999,2 49759  53.2191 358.6177 0002640  20.2095 121.3706 15.40509422  3649,6822.7419999999975,93.476,446.408,442.806,0.0
49759.0,STARLINK-3204,PAYLOAD,2022-02-08 22:00:01,15.40483698,0.0002521,53.2195,357.0466,20.9858,170.2813,-0.00033378,-0.00014116,0.0,0 STARLINK-3204,1 49759U 21115AM  22039.91668981 -.00014116  00000-0 -33378-3 0  9990,2 49759  53.2195 357.0466 0002521  20.9858 170.2813 15.40483698 11736,6822.818,93.477,446.403,442.963,0.0
49759.0,STARLINK-3204,PAYLOAD,2022-02-09 14:18:06,15.40476427,0.000265,53.2199,353.8462,22.989,337.1234,7.1269e-05,2.529e-05,0.0,0 STARLINK-3204,1 49759U 21115AM  22040.59590650  .00002529  00000-0  71269-4 0  9998,2 49759  53.2199 353.8462 0002650  22.9890 337.1234 15.40476427 10733,6822.839,93.478,446.512,442.896,0.0
49759.0,STARLINK-3204,PAYLOAD,2022-02-09 22:00:00,15.405010699999998,0.0002519,53.2197,352.3352,19.7149,320.301,-0.00065971,-0.00027474,0.0,0 STARLINK-3204,1 49759U 21115AM  22040.91667824 -.00027474  00000-0 -65971-3 0  9992,2 49759  53.2197 352.3352 0002519  19.7149 320.3010 15.40501070 11895,6822.766,93.476,446.35,442.913,0.0
49759.0,STARLINK-3204,PAYLOAD,2022-02-10 13:39:28,15.40481112,0.0002873,53.2197,349.2606,22.0518,338.0611,8.173100000000001e-05,2.9600000000000005e-05,0.0,0 STARLINK-3204,1 49759U 21115AM  22041.56908510  .00002960  00000-0  81731-4 0  9998,2 49759  53.2197 349.2606 0002873  22.0518 338.0611 15.40481112 10887,6822.825,93.477,446.651,442.73,0.0
49759.0,STARLINK-3204,PAYLOAD,2022-02-10 16:46:20,15.40475114,0.0003025,53.2173,348.6525,28.1306,331.9863,5.3483e-05,1.797e-05,0.0,0 STARLINK-3204,1 49759U 21115AM  22041.69884517  .00001797  00000-0  53483-4 0  9992,2 49759  53.2173 348.6525 0003025  28.1306 331.9863 15.40475114 12019,6822.843000000003,93.478,446.772,442.644,0.0
49759.0,STARLINK-3204,PAYLOAD,2022-02-10 19:53:11,15.40480593,0.0002984,53.2173,348.0409,30.8785,329.2396,2.1964e-05,4.99e-06,0.0,0 STARLINK-3204,1 49759U 21115AM  22041.82860116  .00000499  00000-0  21964-4 0  9993,2 49759  53.2173 348.0409 0002984  30.8785 329.2396 15.40480593 10924,6822.8269999999975,93.477,446.728,442.656,0.0
49759.0,STARLINK-3204,PAYLOAD,2022-02-11 05:13:43,15.40518363,0.0002847,53.22,346.2029,21.0312,339.081,0.00048745,0.00019732,0.0,0 STARLINK-3204,1 49759U 21115AM  22042.21786025  .00019732  00000-0  48745-3 0  9998,2 49759  53.2200 346.2029 0002847  21.0312 339.0810 15.40518363 12096,6822.715,93.475,446.523,442.638,0.0
49759.0,STARLINK-3204,PAYLOAD,2022-02-11 13:00:49,15.4053497,0.0002691,53.2195,344.6752,24.0218,336.0913,0.00052771,0.00021412,0.0,0 STARLINK-3204,1 49759U 21115AM  22042.54224071  .00021412  00000-0  52771-3 0  9994,2 49759  53.2195 344.6752 0002691  24.0218 336.0913 15.40534970 11035,6822.666,93.474,446.367,442.695,0.0
49759.0,STARLINK-3204,PAYLOAD,2022-02-11 20:47:55,15.405543099999996,0.0002626,53.2187,343.1472,22.7197,337.3925,0.00052594,0.00021352,0.0,0 STARLINK-3204,1 49759U 21115AM  22042.86661888  .00021352  00000-0  52594-3 0  9996,2 49759  53.2187 343.1472 0002626  22.7197 337.3925 15.40554310 11080,6822.609,93.473,446.266,442.6830000000001,0.0
49759.0,STARLINK-3204,PAYLOAD,2022-02-12 04:35:02,15.40531684,0.0002656,53.219,341.6187,24.3685,335.7446,-0.00010247,-4.626e-05,0.0,0 STARLINK-3204,1 49759U 21115AM  22043.19100208 -.00004626  00000-0 -10247-3 0  9993,2 49759  53.2190 341.6187 0002656  24.3685 335.7446 15.40531684 12241,6822.676,93.474,446.353,442.729,0.0
49759.0,STARLINK-3204,PAYLOAD,2022-02-12 12:22:09,15.40522318,0.0002704,53.2191,340.0906,25.4691,334.6448,-0.00018929,-8.197e-05,0.0,0 STARLINK-3204,1 49759U 21115AM  22043.51538629 -.00008197  00000-0 -18929-3 0  9993,2 49759  53.2191 340.0906 0002704  25.4691 334.6448 15.40522318 11183,6822.704000000002,93.475,446.414,442.724,0.0
49759.0,STARLINK-3204,PAYLOAD,2022-02-12 22:00:00,15.40287334,0.0002551,53.2187,338.2008,27.0014,39.6405,0.0036448,0.00151621,0.0,0 STARLINK-3204,1 49759U 21115AM  22043.91667824  .00151621  00000-0  36448-2 0  9991,2 49759  53.2187 338.2008 0002551  27.0014  39.6405 15.40287334 12358,6823.398,93.489,447.003,443.522,0.0
49759.0,STARLINK-3204,PAYLOAD,2022-02-13 14:00:01,15.40423915,0.0002598,53.2188,335.0599,23.9308,141.7504,-0.00083924,-0.0003472,0.0,0 STARLINK-3204,1 49759U 21115AM  22044.58334491 -.00034720  00000-0 -83924-3 0  9990,2 49759  53.2188 335.0599 0002598  23.9308 141.7504 15.40423915 12454,6822.994000000002,93.481,446.632,443.087,0.0
49759.0,STARLINK-3204,PAYLOAD,2022-02-13 22:00:00,15.40437426,0.0002664,53.2192,333.49,27.8429,187.3519,0.0002686,0.00010649,0.0,0 STARLINK-3204,1 49759U 21115AM  22044.91667824  .00010649  00000-0  26860-3 0  9994,2 49759  53.2192 333.4900 0002664  27.8429 187.3519 15.40437426 12508,6822.954000000002,93.48,446.637,443.002,0.0
